start=new Date('2022-01-24T00:00:00.000Z').valueOf();
sats=[{"MEAN_ELEMENT_THEORY":"SGP4","RCS_SIZE":"LARGE","EPOCH":"2022-01-23T14:00:01.000224","APOAPSIS":"432.512","ELEMENT_SET_NO":"999","FILE":"3280923","OBJECT_ID":"2021-104AU","MEAN_ANOMALY":"43.8799","RA_OF_ASC_NODE":"143.6106","OBJECT_TYPE":"PAYLOAD","GP_ID":"194465589","DECAY_DATE":null,"REV_AT_EPOCH":"367","MEAN_MOTION_DDOT":"0.0000000000000","CLASSIFICATION_TYPE":"U","CENTER_NAME":"EARTH","NORAD_CAT_ID":"49450","MEAN_MOTION":"15.45122630","COUNTRY_CODE":"US","TLE_LINE2":"2 49450  53.2175 143.6106 0002192  23.7068  43.8799 15.45122630  3673","SITE":"AFETR","OBJECT_NAME":"STARLINK-3127","MEAN_MOTION_DOT":"-0.00656264","INCLINATION":"53.2175","SEMIMAJOR_AXIS":"6809.155","LAUNCH_DATE":"2021-11-13","ARG_OF_PERICENTER":"23.7068","TLE_LINE1":"1 49450U 21104AU  22023.58334491 -.00656264  00000-0 -14829-1 0  9992","EPHEMERIS_TYPE":"0","BSTAR":"-0.01482900000000","PERIOD":"93.196","PERIAPSIS":"429.527","ECCENTRICITY":"0.00021920","REF_FRAME":"TEME","TIME_SYSTEM":"UTC"},{"MEAN_MOTION_DOT":"-0.00655734","INCLINATION":"53.2175","SEMIMAJOR_AXIS":"6808.141","LAUNCH_DATE":"2021-11-13","TLE_LINE1":"1 49451U 21104AV  22023.58334491 -.00655734  00000-0 -14641-1 0  9996","ARG_OF_PERICENTER":"24.6771","EPHEMERIS_TYPE":"0","PERIOD":"93.176","BSTAR":"-0.01464100000000","PERIAPSIS":"428.513","REF_FRAME":"TEME","ECCENTRICITY":"0.00021940","TIME_SYSTEM":"UTC","RCS_SIZE":"LARGE","EPOCH":"2022-01-23T14:00:01.000224","APOAPSIS":"431.500","ELEMENT_SET_NO":"999","MEAN_ELEMENT_THEORY":"SGP4","OBJECT_ID":"2021-104AV","FILE":"3280923","MEAN_ANOMALY":"70.5208","OBJECT_TYPE":"PAYLOAD","RA_OF_ASC_NODE":"143.6077","DECAY_DATE":null,"GP_ID":"194465339","MEAN_MOTION_DDOT":"0.0000000000000","REV_AT_EPOCH":"367","CENTER_NAME":"EARTH","CLASSIFICATION_TYPE":"U","MEAN_MOTION":"15.45467678","COUNTRY_CODE":"US","NORAD_CAT_ID":"49451","TLE_LINE2":"2 49451  53.2175 143.6077 0002194  24.6771  70.5208 15.45467678  3670","SITE":"AFETR","OBJECT_NAME":"STARLINK-3125"},{"COUNTRY_CODE":"US","MEAN_MOTION":"15.45437443","NORAD_CAT_ID":"49452","CENTER_NAME":"EARTH","CLASSIFICATION_TYPE":"U","OBJECT_NAME":"STARLINK-3150","SITE":"AFETR","TLE_LINE2":"2 49452  53.2171 142.4017 0001497  43.2402  48.2417 15.45437443 12470","MEAN_ANOMALY":"48.2417","OBJECT_ID":"2021-104AW","FILE":"3280954","APOAPSIS":"431.114","RCS_SIZE":"LARGE","EPOCH":"2022-01-23T20:00:01.000224","ELEMENT_SET_NO":"999","MEAN_ELEMENT_THEORY":"SGP4","MEAN_MOTION_DDOT":"0.0000000000000","REV_AT_EPOCH":"1247","DECAY_DATE":null,"GP_ID":"194467657","OBJECT_TYPE":"PAYLOAD","RA_OF_ASC_NODE":"142.4017","PERIAPSIS":"429.076","PERIOD":"93.178","BSTAR":"-0.01459200000000","TIME_SYSTEM":"UTC","REF_FRAME":"TEME","ECCENTRICITY":"0.00014970","INCLINATION":"53.2171","MEAN_MOTION_DOT":"-0.00652977","EPHEMERIS_TYPE":"0","TLE_LINE1":"1 49452U 21104AW  22023.83334491 -.00652977  00000-0 -14592-1 0  9996","ARG_OF_PERICENTER":"43.2402","LAUNCH_DATE":"2021-11-13","SEMIMAJOR_AXIS":"6808.230"},{"CLASSIFICATION_TYPE":"U","CENTER_NAME":"EARTH","NORAD_CAT_ID":"49453","COUNTRY_CODE":"US","MEAN_MOTION":"15.45692021","TLE_LINE2":"2 49453  53.2174 143.6042 0002060  29.3312  84.6403 15.45692021  3684","OBJECT_NAME":"STARLINK-3129","SITE":"AFETR","FILE":"3280923","OBJECT_ID":"2021-104AX","MEAN_ELEMENT_THEORY":"SGP4","RCS_SIZE":"LARGE","APOAPSIS":"430.750","ELEMENT_SET_NO":"999","EPOCH":"2022-01-23T14:00:01.000224","MEAN_ANOMALY":"84.6403","GP_ID":"194466833","DECAY_DATE":null,"RA_OF_ASC_NODE":"143.6042","OBJECT_TYPE":"PAYLOAD","REV_AT_EPOCH":"368","MEAN_MOTION_DDOT":"0.0000000000000","BSTAR":"-0.01451800000000","PERIOD":"93.162","PERIAPSIS":"427.945","ECCENTRICITY":"0.00020600","REF_FRAME":"TEME","TIME_SYSTEM":"UTC","MEAN_MOTION_DOT":"-0.00655292","INCLINATION":"53.2174","LAUNCH_DATE":"2021-11-13","SEMIMAJOR_AXIS":"6807.482","EPHEMERIS_TYPE":"0","ARG_OF_PERICENTER":"29.3312","TLE_LINE1":"1 49453U 21104AX  22023.58334491 -.00655292  00000-0 -14518-1 0  9990"},{"NORAD_CAT_ID":"49454","MEAN_MOTION":"15.45231841","COUNTRY_CODE":"US","CENTER_NAME":"EARTH","CLASSIFICATION_TYPE":"U","SITE":"AFETR","OBJECT_NAME":"STARLINK-3160","TLE_LINE2":"2 49454  53.2172 142.4204 0001577  36.9397  19.0402 15.45231841 12476","MEAN_ANOMALY":"19.0402","MEAN_ELEMENT_THEORY":"SGP4","APOAPSIS":"431.773","RCS_SIZE":"LARGE","ELEMENT_SET_NO":"999","EPOCH":"2022-01-23T20:00:01.000224","FILE":"3280965","OBJECT_ID":"2021-104AY","REV_AT_EPOCH":"1247","MEAN_MOTION_DDOT":"0.0000000000000","RA_OF_ASC_NODE":"142.4204","OBJECT_TYPE":"PAYLOAD","GP_ID":"194467778","DECAY_DATE":null,"PERIAPSIS":"429.625","BSTAR":"-0.01469300000000","PERIOD":"93.190","TIME_SYSTEM":"UTC","ECCENTRICITY":"0.00015770","REF_FRAME":"TEME","INCLINATION":"53.2172","MEAN_MOTION_DOT":"-0.00652878","ARG_OF_PERICENTER":"36.9397","TLE_LINE1":"1 49454U 21104AY  22023.83334491 -.00652878  00000-0 -14693-1 0  9990","EPHEMERIS_TYPE":"0","SEMIMAJOR_AXIS":"6808.834","LAUNCH_DATE":"2021-11-13"},{"REF_FRAME":"TEME","ECCENTRICITY":"0.00020500","TIME_SYSTEM":"UTC","PERIOD":"93.141","BSTAR":"-0.01432500000000","PERIAPSIS":"426.940","SEMIMAJOR_AXIS":"6806.470","LAUNCH_DATE":"2021-11-13","TLE_LINE1":"1 49455U 21104AZ  22023.58334491 -.00654409  00000-0 -14325-1 0  9997","ARG_OF_PERICENTER":"31.5029","EPHEMERIS_TYPE":"0","MEAN_MOTION_DOT":"-0.00654409","INCLINATION":"53.2173","TLE_LINE2":"2 49455  53.2173 143.5999 0002050  31.5029 109.5743 15.46036846  3686","SITE":"AFETR","OBJECT_NAME":"STARLINK-3145","CLASSIFICATION_TYPE":"U","CENTER_NAME":"EARTH","COUNTRY_CODE":"US","MEAN_MOTION":"15.46036846","NORAD_CAT_ID":"49455","OBJECT_TYPE":"PAYLOAD","RA_OF_ASC_NODE":"143.5999","DECAY_DATE":null,"GP_ID":"194465839","MEAN_MOTION_DDOT":"0.0000000000000","REV_AT_EPOCH":"368","ELEMENT_SET_NO":"999","RCS_SIZE":"LARGE","APOAPSIS":"429.731","EPOCH":"2022-01-23T14:00:01.000224","MEAN_ELEMENT_THEORY":"SGP4","OBJECT_ID":"2021-104AZ","FILE":"3280923","MEAN_ANOMALY":"109.5743"},{"MEAN_MOTION":"15.45806931","COUNTRY_CODE":"US","NORAD_CAT_ID":"49456","CENTER_NAME":"EARTH","CLASSIFICATION_TYPE":"U","OBJECT_NAME":"STARLINK-3124","SITE":"AFETR","TLE_LINE2":"2 49456  53.2174 143.6026 0002009  30.8492  92.1916 15.45806931  3688","MEAN_ANOMALY":"92.1916","OBJECT_ID":"2021-104BA","FILE":"3280923","RCS_SIZE":"LARGE","EPOCH":"2022-01-23T14:00:01.000224","APOAPSIS":"430.378","ELEMENT_SET_NO":"999","MEAN_ELEMENT_THEORY":"SGP4","MEAN_MOTION_DDOT":"0.0000000000000","REV_AT_EPOCH":"368","DECAY_DATE":null,"GP_ID":"194466091","OBJECT_TYPE":"PAYLOAD","RA_OF_ASC_NODE":"143.6026","PERIAPSIS":"427.643","PERIOD":"93.155","BSTAR":"-0.01445200000000","TIME_SYSTEM":"UTC","REF_FRAME":"TEME","ECCENTRICITY":"0.00020090","INCLINATION":"53.2174","MEAN_MOTION_DOT":"-0.00654930","EPHEMERIS_TYPE":"0","TLE_LINE1":"1 49456U 21104BA  22023.58334491 -.00654930  00000-0 -14452-1 0  9998","ARG_OF_PERICENTER":"30.8492","LAUNCH_DATE":"2021-11-13","SEMIMAJOR_AXIS":"6807.145"},{"SEMIMAJOR_AXIS":"6806.133","LAUNCH_DATE":"2021-11-13","TLE_LINE1":"1 49457U 21104BB  22023.58334491 -.00654179  00000-0 -14263-1 0  9994","ARG_OF_PERICENTER":"34.2455","EPHEMERIS_TYPE":"0","MEAN_MOTION_DOT":"-0.00654179","INCLINATION":"53.2173","REF_FRAME":"TEME","ECCENTRICITY":"0.00019530","TIME_SYSTEM":"UTC","PERIOD":"93.134","BSTAR":"-0.01426300000000","PERIAPSIS":"426.668","OBJECT_TYPE":"PAYLOAD","RA_OF_ASC_NODE":"143.5984","DECAY_DATE":null,"GP_ID":"194466334","MEAN_MOTION_DDOT":"0.0000000000000","REV_AT_EPOCH":"368","RCS_SIZE":"LARGE","APOAPSIS":"429.327","EPOCH":"2022-01-23T14:00:01.000224","ELEMENT_SET_NO":"999","MEAN_ELEMENT_THEORY":"SGP4","OBJECT_ID":"2021-104BB","FILE":"3280923","MEAN_ANOMALY":"115.7987","TLE_LINE2":"2 49457  53.2173 143.5984 0001953  34.2455 115.7987 15.46151850  3688","SITE":"AFETR","OBJECT_NAME":"STARLINK-3132","CLASSIFICATION_TYPE":"U","CENTER_NAME":"EARTH","COUNTRY_CODE":"US","MEAN_MOTION":"15.46151850","NORAD_CAT_ID":"49457"},{"MEAN_ANOMALY":"40.3806","OBJECT_ID":"2021-104BC","FILE":"3280977","RCS_SIZE":"LARGE","APOAPSIS":"430.709","EPOCH":"2022-01-23T20:00:01.000224","ELEMENT_SET_NO":"999","MEAN_ELEMENT_THEORY":"SGP4","MEAN_MOTION_DDOT":"0.0000000000000","REV_AT_EPOCH":"1247","DECAY_DATE":null,"GP_ID":"194468429","OBJECT_TYPE":"PAYLOAD","RA_OF_ASC_NODE":"142.4153","COUNTRY_CODE":"US","MEAN_MOTION":"15.45571556","NORAD_CAT_ID":"49458","CENTER_NAME":"EARTH","CLASSIFICATION_TYPE":"U","OBJECT_NAME":"STARLINK-3156","SITE":"AFETR","TLE_LINE2":"2 49458  53.2171 142.4153 0001480  43.6473  40.3806 15.45571556 12470","INCLINATION":"53.2171","MEAN_MOTION_DOT":"-0.00652988","EPHEMERIS_TYPE":"0","TLE_LINE1":"1 49458U 21104BC  22023.83334491 -.00652988  00000-0 -14525-1 0  9990","ARG_OF_PERICENTER":"43.6473","LAUNCH_DATE":"2021-11-13","SEMIMAJOR_AXIS":"6807.836","PERIAPSIS":"428.694","PERIOD":"93.169","BSTAR":"-0.01452500000000","TIME_SYSTEM":"UTC","REF_FRAME":"TEME","ECCENTRICITY":"0.00014800"},{"MEAN_MOTION_DDOT":"0.0000000000000","REV_AT_EPOCH":"368","OBJECT_TYPE":"PAYLOAD","RA_OF_ASC_NODE":"143.5967","DECAY_DATE":null,"GP_ID":"194465340","MEAN_ANOMALY":"123.8413","EPOCH":"2022-01-23T14:00:01.000224","RCS_SIZE":"LARGE","APOAPSIS":"428.984","ELEMENT_SET_NO":"999","MEAN_ELEMENT_THEORY":"SGP4","OBJECT_ID":"2021-104BD","FILE":"3280923","SITE":"AFETR","OBJECT_NAME":"STARLINK-3141","TLE_LINE2":"2 49459  53.2173 143.5967 0001944  35.1359 123.8413 15.46266742  3685","COUNTRY_CODE":"US","MEAN_MOTION":"15.46266742","NORAD_CAT_ID":"49459","CLASSIFICATION_TYPE":"U","CENTER_NAME":"EARTH","TLE_LINE1":"1 49459U 21104BD  22023.58334491 -.00653825  00000-0 -14198-1 0  9990","ARG_OF_PERICENTER":"35.1359","EPHEMERIS_TYPE":"0","SEMIMAJOR_AXIS":"6805.796","LAUNCH_DATE":"2021-11-13","INCLINATION":"53.2173","MEAN_MOTION_DOT":"-0.00653825","TIME_SYSTEM":"UTC","REF_FRAME":"TEME","ECCENTRICITY":"0.00019440","PERIAPSIS":"426.337","PERIOD":"93.128","BSTAR":"-0.01419800000000"}];
